IRIDIUM 144             
1 43249U 18030A   25288.76171002  .00000441  00000+0  15033-3 0  9996
2 43249  86.4003  32.5686 0001991  92.5248 267.6176 14.34221143395103
IRIDIUM 149             
1 43250U 18030B   25288.20989990  .00000525  00000+0  18039-3 0  9992
2 43250  86.3994  32.7686 0001938  92.7454 267.3964 14.34219125395049
IRIDIUM 157             
1 43251U 18030C   25288.57777000  .00000339  00000+0  11393-3 0  9999
2 43251  86.4005  32.6629 0002147 101.2971 258.8466 14.34219364395073
IRIDIUM 140             
1 43252U 18030D   25288.38749288  .00000046  00000+0  95305-5 0  9998
2 43252  86.4007  32.7558 0002191  91.0050 269.1397 14.34218163395109
IRIDIUM 145             
1 43253U 18030E   25287.53758464  .00000199  00000+0  63991-4 0  9995
2 43253  86.4000  33.0832 0001854  85.1356 275.0052 14.34219016394910
IRIDIUM 146             
1 43254U 18030F   25288.56508522  .00000204  00000+0  65767-4 0  9998
2 43254  86.4002  32.6670 0001905  89.8751 270.2664 14.34218538395077
IRIDIUM 148             
1 43255U 18030G   25288.74267455  .00000452  00000+0  15429-3 0  9990
2 43255  86.4007  32.6324 0001984  97.1434 262.9988 14.34220994395139
IRIDIUM 142             
1 43256U 18030H   25288.57142772  .00000269  00000+0  88831-4 0  9990
2 43256  86.4011  32.6029 0001951  90.2995 269.8424 14.34216036395073
